officeCode,city,phone,addressLine1,addressLine2,state,country,postalCode,territory
IN001,Bangalore,+91-3993-710092,245 Nehru Street,Suite 41,MH,India,316821,APAC
IN002,Bangalore,+91-1501-591685,856 Vivekananda Street,,WB,India,687083,APAC
IN003,Lucknow,+91-4243-619320,277 Nehru Street,,MH,India,121030,APAC
IN004,Bangalore,+91-5132-797778,824 Nehru Street,Suite 20,GJ,India,753110,APAC
IN005,Hyderabad,+91-1422-759731,824 Nehru Street,,RJ,India,665670,APAC
IN006,Bangalore,+91-8009-283792,516 Netaji Subhash Place,,TG,India,225571,APAC
IN007,Chennai,+91-7409-174021,549 Vivekananda Street,Suite 32,UP,India,803930,APAC
IN008,Ahmedabad,+91-9326-428125,829 Netaji Subhash Place,Suite 71,WB,India,610485,APAC
IN009,Jaipur,+91-9650-647981,684 Shivaji Nagar,Suite 60,TN,India,762921,APAC
IN010,Chennai,+91-4123-143610,623 Sardar Patel Avenue,,WB,India,717384,APAC
IN011,Lucknow,+91-4474-957972,756 Netaji Subhash Place,,TG,India,660231,APAC
IN012,Hyderabad,+91-5268-865572,141 Tilak Marg,,KA,India,149677,APAC
IN013,Chennai,+91-7853-319224,254 Mahatma Gandhi Road,Suite 94,DL,India,396876,APAC
IN014,Mumbai,+91-5317-727952,685 Vivekananda Street,Suite 24,RJ,India,427222,APAC
IN015,Bangalore,+91-6483-953264,514 Tagore Path,,RJ,India,360080,APAC
IN016,Lucknow,+91-4080-806536,819 Shivaji Nagar,,TN,India,411100,APAC
IN017,Lucknow,+91-6490-839869,543 Nehru Street,,DL,India,447593,APAC
IN018,Mumbai,+91-5100-371206,395 Tilak Marg,,GJ,India,834569,APAC
IN019,Mumbai,+91-9175-439941,582 Sardar Patel Avenue,Suite 80,GJ,India,940436,APAC
IN020,Pune,+91-6873-838192,595 Rajaji Road,Suite 43,MH,India,464184,APAC
IN021,Hyderabad,+91-1394-927905,916 Netaji Subhash Place,Suite 2,TN,India,967566,APAC
IN022,Chennai,+91-2273-189894,163 Vivekananda Street,,UP,India,980493,APAC
IN023,Kolkata,+91-6127-931871,785 Rajaji Road,Suite 84,WB,India,831721,APAC
IN024,Jaipur,+91-7183-909882,650 Netaji Subhash Place,Suite 70,RJ,India,813661,APAC
IN025,Ahmedabad,+91-4674-886004,324 Netaji Subhash Place,,TN,India,573527,APAC
IN026,Bangalore,+91-1388-125902,561 Tagore Path,,RJ,India,888866,APAC
IN027,Bangalore,+91-8176-377074,947 Nehru Street,Suite 74,TN,India,134255,APAC
IN028,Mumbai,+91-8197-295554,789 Nehru Street,Suite 85,DL,India,513225,APAC
IN029,Pune,+91-4118-982013,349 Mahatma Gandhi Road,,WB,India,502243,APAC
IN030,Jaipur,+91-9271-974044,862 Rajaji Road,,TN,India,951543,APAC
IN031,Ahmedabad,+91-6300-829248,301 Shivaji Nagar,,RJ,India,836266,APAC
IN032,Ahmedabad,+91-5536-954967,379 Rajaji Road,Suite 82,GJ,India,695551,APAC
IN033,Mumbai,+91-7093-418569,257 Tilak Marg,Suite 20,UP,India,459139,APAC
IN034,Hyderabad,+91-8074-778497,99 Tagore Path,,UP,India,827163,APAC
IN035,Lucknow,+91-8819-800917,34 Shivaji Nagar,Suite 49,KA,India,544956,APAC
IN036,Mumbai,+91-5051-128245,428 Ambedkar Marg,Suite 97,GJ,India,736854,APAC
IN037,Ahmedabad,+91-8499-403412,677 Mahatma Gandhi Road,Suite 50,TN,India,239946,APAC
IN038,Lucknow,+91-1190-790511,237 Vivekananda Street,,UP,India,389386,APAC
IN039,Lucknow,+91-6793-502901,445 Rajaji Road,Suite 25,KA,India,233684,APAC
IN040,Hyderabad,+91-4328-920214,129 Tagore Path,Suite 52,WB,India,444358,APAC
IN041,Lucknow,+91-6000-675833,733 Nehru Street,,KA,India,462702,APAC
IN042,Hyderabad,+91-1029-531868,547 Shivaji Nagar,,DL,India,408350,APAC
IN043,Hyderabad,+91-7214-903154,897 Vivekananda Street,,DL,India,888755,APAC
IN044,Hyderabad,+91-7081-106654,58 Tilak Marg,Suite 32,KA,India,820089,APAC
IN045,Kolkata,+91-5433-879608,118 Sardar Patel Avenue,Suite 43,DL,India,730790,APAC
IN046,Delhi,+91-4953-527038,875 Vivekananda Street,,KA,India,131900,APAC
IN047,Bangalore,+91-5239-538709,78 Ambedkar Marg,Suite 14,RJ,India,461630,APAC
IN048,Bangalore,+91-9761-918901,254 Ambedkar Marg,,KA,India,991211,APAC
IN049,Mumbai,+91-1245-610223,859 Tagore Path,,TN,India,615433,APAC
IN050,Lucknow,+91-5424-971742,401 Tagore Path,,TN,India,337646,APAC
